<?xml version="1.0" encoding="UTF-8"?>
<ndm xmlns:xsi="http://www.w3.org/2001/XMLSchema-instance" xsi:noNamespaceSchemaLocation="https://sanaregistry.org/r/ndmxml_unqualified/ndmxml-2.0.0-master-2.0.xsd">
<omm id="CCSDS_OMM_VERS" version="2.0">
<header><CREATION_DATE/><ORIGINATOR/></header><body><segment><metadata><OBJECT_NAME>IRIDIUM 921</OBJECT_NAME><OBJECT_ID>1997-034E</OBJECT_ID><CENTER_NAME>EARTH</CENTER_NAME><REF_FRAME>TEME</REF_FRAME><TIME_SYSTEM>UTC</TIME_SYSTEM><MEAN_ELEMENT_THEORY>SGP4</MEAN_ELEMENT_THEORY></metadata><data><meanElements><EPOCH>2025-02-10T16:29:51.485280</EPOCH><MEAN_MOTION>16.19547132</MEAN_MOTION><ECCENTRICITY>.0008774</ECCENTRICITY><INCLINATION>86.3496</INCLINATION><RA_OF_ASC_NODE>166.2809</RA_OF_ASC_NODE><ARG_OF_PERICENTER>293.4847</ARG_OF_PERICENTER><MEAN_ANOMALY>173.8747</MEAN_ANOMALY></meanElements><tleParameters><EPHEMERIS_TYPE>0</EPHEMERIS_TYPE><CLASSIFICATION_TYPE>U</CLASSIFICATION_TYPE><NORAD_CAT_ID>24873</NORAD_CAT_ID><ELEMENT_SET_NO>999</ELEMENT_SET_NO><REV_AT_EPOCH>51261</REV_AT_EPOCH><BSTAR>.11862E-2</BSTAR><MEAN_MOTION_DOT>.2159165E-1</MEAN_MOTION_DOT><MEAN_MOTION_DDOT>-.1422E-5</MEAN_MOTION_DDOT></tleParameters></data></segment></body></omm>
<omm id="CCSDS_OMM_VERS" version="2.0">
<header><CREATION_DATE/><ORIGINATOR/></header><body><segment><metadata><OBJECT_NAME>IRIDIUM 26</OBJECT_NAME><OBJECT_ID>1997-043A</OBJECT_ID><CENTER_NAME>EARTH</CENTER_NAME><REF_FRAME>TEME</REF_FRAME><TIME_SYSTEM>UTC</TIME_SYSTEM><MEAN_ELEMENT_THEORY>SGP4</MEAN_ELEMENT_THEORY></metadata><data><meanElements><EPOCH>2025-02-10T21:03:09.781056</EPOCH><MEAN_MOTION>14.36966241</MEAN_MOTION><ECCENTRICITY>.0002175</ECCENTRICITY><INCLINATION>86.4022</INCLINATION><RA_OF_ASC_NODE>163.6445</RA_OF_ASC_NODE><ARG_OF_PERICENTER>100.0133</ARG_OF_PERICENTER><MEAN_ANOMALY>260.1310</MEAN_ANOMALY></meanElements><tleParameters><EPHEMERIS_TYPE>0</EPHEMERIS_TYPE><CLASSIFICATION_TYPE>U</CLASSIFICATION_TYPE><NORAD_CAT_ID>24903</NORAD_CAT_ID><ELEMENT_SET_NO>999</ELEMENT_SET_NO><REV_AT_EPOCH>43860</REV_AT_EPOCH><BSTAR>.27355E-3</BSTAR><MEAN_MOTION_DOT>.829E-5</MEAN_MOTION_DOT><MEAN_MOTION_DDOT>0</MEAN_MOTION_DDOT></tleParameters></data></segment></body></omm>
<omm id="CCSDS_OMM_VERS" version="2.0">
<header><CREATION_DATE/><ORIGINATOR/></header><body><segment><metadata><OBJECT_NAME>IRIDIUM 22</OBJECT_NAME><OBJECT_ID>1997-043E</OBJECT_ID><CENTER_NAME>EARTH</CENTER_NAME><REF_FRAME>TEME</REF_FRAME><TIME_SYSTEM>UTC</TIME_SYSTEM><MEAN_ELEMENT_THEORY>SGP4</MEAN_ELEMENT_THEORY></metadata><data><meanElements><EPOCH>2025-02-10T20:13:42.822336</EPOCH><MEAN_MOTION>14.35799824</MEAN_MOTION><ECCENTRICITY>.0002063</ECCENTRICITY><INCLINATION>86.4027</INCLINATION><RA_OF_ASC_NODE>167.0838</RA_OF_ASC_NODE><ARG_OF_PERICENTER>94.0641</ARG_OF_PERICENTER><MEAN_ANOMALY>266.0792</MEAN_ANOMALY></meanElements><tleParameters><EPHEMERIS_TYPE>0</EPHEMERIS_TYPE><CLASSIFICATION_TYPE>U</CLASSIFICATION_TYPE><NORAD_CAT_ID>24907</NORAD_CAT_ID><ELEMENT_SET_NO>999</ELEMENT_SET_NO><REV_AT_EPOCH>43864</REV_AT_EPOCH><BSTAR>.27294E-3</BSTAR><MEAN_MOTION_DOT>.809E-5</MEAN_MOTION_DOT><MEAN_MOTION_DDOT>0</MEAN_MOTION_DDOT></tleParameters></data></segment></body></omm>
<omm id="CCSDS_OMM_VERS" version="2.0">
<header><CREATION_DATE/><ORIGINATOR/></header><body><segment><metadata><OBJECT_NAME>DUMMY MASS 1</OBJECT_NAME><OBJECT_ID>1997-048A</OBJECT_ID><CENTER_NAME>EARTH</CENTER_NAME><REF_FRAME>TEME</REF_FRAME><TIME_SYSTEM>UTC</TIME_SYSTEM><MEAN_ELEMENT_THEORY>SGP4</MEAN_ELEMENT_THEORY></metadata><data><meanElements><EPOCH>2025-02-10T21:31:03.866592</EPOCH><MEAN_MOTION>14.86786372</MEAN_MOTION><ECCENTRICITY>.0004969</ECCENTRICITY><INCLINATION>86.3380</INCLINATION><RA_OF_ASC_NODE>193.6613</RA_OF_ASC_NODE><ARG_OF_PERICENTER>219.0323</ARG_OF_PERICENTER><MEAN_ANOMALY>141.0544</MEAN_ANOMALY></meanElements><tleParameters><EPHEMERIS_TYPE>0</EPHEMERIS_TYPE><CLASSIFICATION_TYPE>U</CLASSIFICATION_TYPE><NORAD_CAT_ID>24925</NORAD_CAT_ID><ELEMENT_SET_NO>999</ELEMENT_SET_NO><REV_AT_EPOCH>48636</REV_AT_EPOCH><BSTAR>.10566E-3</BSTAR><MEAN_MOTION_DOT>.969E-5</MEAN_MOTION_DOT><MEAN_MOTION_DDOT>0</MEAN_MOTION_DDOT></tleParameters></data></segment></body></omm>
<omm id="CCSDS_OMM_VERS" version="2.0">
<header><CREATION_DATE/><ORIGINATOR/></header><body><segment><metadata><OBJECT_NAME>DUMMY MASS 2</OBJECT_NAME><OBJECT_ID>1997-048B</OBJECT_ID><CENTER_NAME>EARTH</CENTER_NAME><REF_FRAME>TEME</REF_FRAME><TIME_SYSTEM>UTC</TIME_SYSTEM><MEAN_ELEMENT_THEORY>SGP4</MEAN_ELEMENT_THEORY></metadata><data><meanElements><EPOCH>2025-02-10T21:43:15.351456</EPOCH><MEAN_MOTION>14.86539852</MEAN_MOTION><ECCENTRICITY>.0005443</ECCENTRICITY><INCLINATION>86.3378</INCLINATION><RA_OF_ASC_NODE>195.2401</RA_OF_ASC_NODE><ARG_OF_PERICENTER>236.2645</ARG_OF_PERICENTER><MEAN_ANOMALY>123.8061</MEAN_ANOMALY></meanElements><tleParameters><EPHEMERIS_TYPE>0</EPHEMERIS_TYPE><CLASSIFICATION_TYPE>U</CLASSIFICATION_TYPE><NORAD_CAT_ID>24926</NORAD_CAT_ID><ELEMENT_SET_NO>999</ELEMENT_SET_NO><REV_AT_EPOCH>48614</REV_AT_EPOCH><BSTAR>.10614E-3</BSTAR><MEAN_MOTION_DOT>.967E-5</MEAN_MOTION_DOT><MEAN_MOTION_DDOT>0</MEAN_MOTION_DDOT></tleParameters></data></segment></body></omm>
<omm id="CCSDS_OMM_VERS" version="2.0">
<header><CREATION_DATE/><ORIGINATOR/></header><body><segment><metadata><OBJECT_NAME>IRIDIUM 29</OBJECT_NAME><OBJECT_ID>1997-051A</OBJECT_ID><CENTER_NAME>EARTH</CENTER_NAME><REF_FRAME>TEME</REF_FRAME><TIME_SYSTEM>UTC</TIME_SYSTEM><MEAN_ELEMENT_THEORY>SGP4</MEAN_ELEMENT_THEORY></metadata><data><meanElements><EPOCH>2025-02-10T21:49:32.313792</EPOCH><MEAN_MOTION>14.36272060</MEAN_MOTION><ECCENTRICITY>.00019</ECCENTRICITY><INCLINATION>86.3990</INCLINATION><RA_OF_ASC_NODE>196.8002</RA_OF_ASC_NODE><ARG_OF_PERICENTER>87.7369</ARG_OF_PERICENTER><MEAN_ANOMALY>272.4045</MEAN_ANOMALY></meanElements><tleParameters><EPHEMERIS_TYPE>0</EPHEMERIS_TYPE><CLASSIFICATION_TYPE>U</CLASSIFICATION_TYPE><NORAD_CAT_ID>24944</NORAD_CAT_ID><ELEMENT_SET_NO>999</ELEMENT_SET_NO><REV_AT_EPOCH>43514</REV_AT_EPOCH><BSTAR>.32194E-3</BSTAR><MEAN_MOTION_DOT>.959E-5</MEAN_MOTION_DOT><MEAN_MOTION_DDOT>0</MEAN_MOTION_DDOT></tleParameters></data></segment></body></omm>

</ndm>
