[{"norad_id":"24873","company":"IRIDIUM","tle_line2":"2 24873  86.3496 166.2809 0008774 293.4847 173.8747 16.19547132512618","launch_date":"1997-07-09","type":"LEO","tle_line1":"1 24873U 97034E   25041.68740145  .02159165 -14220-5  11862-2 0  9998","satellite_name":"IRIDIUM 921"},{"norad_id":"24903","company":"IRIDIUM","tle_line2":"2 24903  86.4022 163.6445 0002175 100.0133 260.1310 14.36966241438600","launch_date":"1997-08-21","type":"LEO","tle_line1":"1 24903U 97043A   25041.87719654  .00000829  00000+0  27355-3 0  9993","satellite_name":"IRIDIUM 26"},{"norad_id":"24907","company":"IRIDIUM","tle_line2":"2 24907  86.4027 167.0838 0002063  94.0641 266.0792 14.35799824438648","launch_date":"1997-08-21","type":"LEO","tle_line1":"1 24907U 97043E   25041.84285674  .00000809  00000+0  27294-3 0  9994","satellite_name":"IRIDIUM 22"},{"norad_id":"24925","company":"IRIDIUM","tle_line2":"2 24925  86.3380 193.6613 0004969 219.0323 141.0544 14.86786372486367","launch_date":"1997-09-01","type":"LEO","tle_line1":"1 24925U 97048A   25041.89657253  .00000969  00000+0  10566-3 0  9991","satellite_name":"DUMMY MASS 1"},{"norad_id":"24926","company":"IRIDIUM","tle_line2":"2 24926  86.3378 195.2401 0005443 236.2645 123.8061 14.86539852486141","launch_date":"1997-09-01","type":"LEO","tle_line1":"1 24926U 97048B   25041.90503879  .00000967  00000+0  10614-3 0  9990","satellite_name":"DUMMY MASS 2"},{"norad_id":"24944","company":"IRIDIUM","tle_line2":"2 24944  86.3990 196.8002 0001900  87.7369 272.4045 14.36272060435148","launch_date":"1997-09-14","type":"LEO","tle_line1":"1 24944U 97051A   25041.90940178  .00000959  00000+0  32194-3 0  9999","satellite_name":"IRIDIUM 29"}]